{
    "links": {
        "self": "http://www.neowsapp.com/rest/v1/neo/3445600?api_key=iIulBulltgU6a56xZRHN4H3l9WmuAYTsLGpBGhQ2"
    },
    "id": "3445600",
    "neo_reference_id": "3445600",
    "name": "(2009 CQ)",
    "designation": "2009 CQ",
    "nasa_jpl_url": "http://ssd.jpl.nasa.gov/sbdb.cgi?sstr=3445600",
    "absolute_magnitude_h": 26.7,
    "estimated_diameter": {
        "kilometers": {
            "estimated_diameter_min": 0.0121494041,
            "estimated_diameter_max": 0.0271668934
        },
        "meters": {
            "estimated_diameter_min": 12.14940408,
            "estimated_diameter_max": 27.1668934089
        },
        "miles": {
            "estimated_diameter_min": 0.0075492874,
            "estimated_diameter_max": 0.0168807197
        },
        "feet": {
            "estimated_diameter_min": 39.8602508817,
            "estimated_diameter_max": 89.1302305717
        }
    },
    "is_potentially_hazardous_asteroid": false,
    "close_approach_data": [
        {
            "close_approach_date": "1939-09-29",
            "close_approach_date_full": "1939-Sep-29 17:57",
            "epoch_date_close_approach": -954828180000,
            "relative_velocity": {
                "kilometers_per_second": "8.2395012208",
                "kilometers_per_hour": "29662.2043948633",
                "miles_per_hour": "18430.9402807972"
            },
            "miss_distance": {
                "astronomical": "0.0815015308",
                "lunar": "31.7040954812",
                "kilometers": "12192455.409419396",
                "miles": "7576040.4857478248"
            },
            "orbiting_body": "Earth"
        },
        {
            "close_approach_date": "2008-08-16",
            "close_approach_date_full": "2008-Aug-16 11:10",
            "epoch_date_close_approach": 1218885000000,
            "relative_velocity": {
                "kilometers_per_second": "6.8864305445",
                "kilometers_per_hour": "24791.1499603199",
                "miles_per_hour": "15404.2564850666"
            },
            "miss_distance": {
                "astronomical": "0.4774668935",
                "lunar": "185.7346215715",
                "kilometers": "71428030.263116845",
                "miles": "44383319.923608661"
            },
            "orbiting_body": "Earth"
        },
        {
            "close_approach_date": "2009-01-26",
            "close_approach_date_full": "2009-Jan-26 04:11",
            "epoch_date_close_approach": 1232943060000,
            "relative_velocity": {
                "kilometers_per_second": "10.0339173891",
                "kilometers_per_hour": "36122.1026009224",
                "miles_per_hour": "22444.8698077787"
            },
            "miss_distance": {
                "astronomical": "0.0281708024",
                "lunar": "10.9584421336",
                "kilometers": "4214292.035230888",
                "miles": "2618639.6427587344"
            },
            "orbiting_body": "Earth"
        },
        {
            "close_approach_date": "2065-02-15",
            "close_approach_date_full": "2065-Feb-15 17:48",
            "epoch_date_close_approach": 3001945680000,
            "relative_velocity": {
                "kilometers_per_second": "19.8448884184",
                "kilometers_per_hour": "71441.5983060989",
                "miles_per_hour": "44391.0309030313"
            },
            "miss_distance": {
                "astronomical": "0.3499790071",
                "lunar": "136.1418337619",
                "kilometers": "52356114.006874877",
                "miles": "32532580.6880602226"
            },
            "orbiting_body": "Earth"
        }
    ],
    "orbital_data": {
        "orbit_id": "6",
        "orbit_determination_date": "2017-04-06 09:01:27",
        "first_observation_date": "2009-02-02",
        "last_observation_date": "2009-02-03",
        "data_arc_in_days": 1,
        "observations_used": 19,
        "orbit_uncertainty": "9",
        "minimum_orbit_intersection": ".0230989",
        "jupiter_tisserand_invariant": "4.682",
        "epoch_osculation": "2454865.5",
        "eccentricity": ".3824459780050202",
        "semi_major_axis": "1.395005656988201",
        "inclination": "5.716577349746592",
        "ascending_node_longitude": "137.3836598675486",
        "orbital_period": "601.8141295424276",
        "perihelion_distance": ".8614913541788125",
        "perihelion_argument": "288.802096954973",
        "aphelion_distance": "1.928519959797589",
        "perihelion_time": "2454812.611375417529",
        "mean_anomaly": "31.63751715860513",
        "mean_motion": ".5981913390330597",
        "equinox": "J2000",
        "orbit_class": {
            "orbit_class_type": "APO",
            "orbit_class_description": "Near-Earth asteroid orbits which cross the Earth’s orbit similar to that of 1862 Apollo",
            "orbit_class_range": "a (semi-major axis) > 1.0 AU; q (perihelion) < 1.017 AU"
        }
    },
    "is_sentry_object": false
}